MALLIGYONG-1            
1 58400U 23179A   24178.85194806  .00006686  00000+0  30294-3 0  9998
2 58400  97.4022  65.5369 0003169 127.3535 232.7990 15.21180408 33190
